KUIPER-00008            
1 63724U 25088A   26074.25001157 -.00008233  00000+0 -10078-2 0  9990
2 63724  51.9000  62.7961 0000828 124.9444  72.9144 14.81719924  4643
KUIPER-00009            
1 63725U 25088B   26073.71233429  .00095547  00000+0  12257-1 0  9992
2 63725  51.9021  84.4258 0006816 114.8465 245.3207 14.80356926 48520
KUIPER-00010            
1 63726U 25088C   26074.24509787  .00001397  00000+0  21228-3 0  9995
2 63726  51.9027  58.5270 0000663 102.0634 258.0402 14.79926394 48555
KUIPER-00011            
1 63727U 25088D   26074.27096160  .00008767  00000+0  11778-2 0  9991
2 63727  51.9002  65.9815 0000888 103.9820 256.1241 14.79923732 48588
KUIPER-00012            
1 63728U 25088E   26074.18566523  .00002673  00000+0  37967-3 0  9996
2 63728  51.9018  51.2759 0000734 106.1224 253.9820 14.79917837 48738
KUIPER-00013            
1 63729U 25088F   26074.31944686  .00003558  00000+0  49601-3 0  9993
2 63729  51.9005  83.2022 0002226  66.2357 293.8838 14.79890750 48404
KUIPER-00014            
1 63730U 25088G   26073.57493210  .00087254  00000+0  11258-1 0  9994
2 63730  51.9009  87.4638 0001749  78.8983 281.2176 14.80187692 48099
KUIPER-00015            
1 63731U 25088H   26073.77514388 -.00020881  00000+0 -24901-2 0  9992
2 63731  51.8986  95.7156 0010658  85.6025 274.6156 14.83525300 48451
KUIPER-00016            
1 63732U 25088J   26073.23466506  .00004279  00000+0  58963-3 0  9999
2 63732  51.8992  91.5001 0006475  88.1474 272.0230 14.79955672 48000
KUIPER-00018            
1 63733U 25088K   26074.25998341  .00003182  00000+0  44637-3 0  9995
2 63733  51.9017  75.9374 0000690  96.1619 263.9422 14.79923221 48313
KUIPER-00019            
1 63734U 25088L   26074.26102869  .00001331  00000+0  20358-3 0  9997
2 63734  51.9003  74.4582 0000673  73.4710 286.6327 14.79942051 48335
KUIPER-00020            
1 63735U 25088M   26073.71674919 -.00025941  00000+0 -33848-2 0  9999
2 63735  51.9003  80.8573 0007221  91.4268 268.7521 14.79934665 48408
KUIPER-00021            
1 63736U 25088N   26072.43215660  .00004025  00000+0  55581-3 0  9999
2 63736  51.9000  87.5329 0003463  91.8245 268.3114 14.80006332 48038
KUIPER-00023            
1 63737U 25088P   26074.25474285  .00003426  00000+0  47840-3 0  9995
2 63737  51.8995  80.9372 0008126 114.1323 246.0490 14.79917412 48581
KUIPER-00024            
1 63738U 25088Q   26074.20058872 -.00001382  00000+0 -15231-3 0  9991
2 63738  51.9041  68.7450 0000704  71.9845 288.1194 14.79916937 48870
KUIPER-00025            
1 63739U 25088R   26074.28613900  .00003754  00000+0  47840-3 0  9993
2 63739  51.9025  76.4656 0000761  30.7205 329.3803 14.83577115 48638
KUIPER-00027            
1 63740U 25088S   26074.19778341 -.00000651  00000+0 -56377-4 0  9997
2 63740  51.9028  71.2271 0000783  82.1457 277.9594 14.79964930 48436
