[{"OBJECT_NAME":"KUIPER-00008","OBJECT_ID":"2025-088A","EPOCH":"2026-03-15T06:00:00.999648","MEAN_MOTION":14.81719924,"ECCENTRICITY":8.288e-5,"INCLINATION":51.9,"RA_OF_ASC_NODE":62.7961,"ARG_OF_PERICENTER":124.9444,"MEAN_ANOMALY":72.9144,"EPHEMERIS_TYPE":0,"CLASSIFICATION_TYPE":"U","NORAD_CAT_ID":63724,"ELEMENT_SET_NO":999,"REV_AT_EPOCH":464,"BSTAR":-0.0010078284,"MEAN_MOTION_DOT":-8.233e-5,"MEAN_MOTION_DDOT":0},{"OBJECT_NAME":"KUIPER-00009","OBJECT_ID":"2025-088B","EPOCH":"2026-03-14T17:05:45.682656","MEAN_MOTION":14.80356926,"ECCENTRICITY":0.00068169,"INCLINATION":51.9021,"RA_OF_ASC_NODE":84.4258,"ARG_OF_PERICENTER":114.8465,"MEAN_ANOMALY":245.3207,"EPHEMERIS_TYPE":0,"CLASSIFICATION_TYPE":"U","NORAD_CAT_ID":63725,"ELEMENT_SET_NO":999,"REV_AT_EPOCH":4852,"BSTAR":0.012257408,"MEAN_MOTION_DOT":0.00095547,"MEAN_MOTION_DDOT":0},{"OBJECT_NAME":"KUIPER-00010","OBJECT_ID":"2025-088C","EPOCH":"2026-03-15T05:52:56.455968","MEAN_MOTION":14.79926394,"ECCENTRICITY":6.634e-5,"INCLINATION":51.9027,"RA_OF_ASC_NODE":58.527,"ARG_OF_PERICENTER":102.0634,"MEAN_ANOMALY":258.0402,"EPHEMERIS_TYPE":0,"CLASSIFICATION_TYPE":"U","NORAD_CAT_ID":63726,"ELEMENT_SET_NO":999,"REV_AT_EPOCH":4855,"BSTAR":0.00021228401,"MEAN_MOTION_DOT":1.397e-5,"MEAN_MOTION_DDOT":0},{"OBJECT_NAME":"KUIPER-00011","OBJECT_ID":"2025-088D","EPOCH":"2026-03-15T06:30:11.082240","MEAN_MOTION":14.79923732,"ECCENTRICITY":8.882e-5,"INCLINATION":51.9002,"RA_OF_ASC_NODE":65.9815,"ARG_OF_PERICENTER":103.982,"MEAN_ANOMALY":256.1241,"EPHEMERIS_TYPE":0,"CLASSIFICATION_TYPE":"U","NORAD_CAT_ID":63727,"ELEMENT_SET_NO":999,"REV_AT_EPOCH":4858,"BSTAR":0.0011777609,"MEAN_MOTION_DOT":8.767e-5,"MEAN_MOTION_DDOT":0},{"OBJECT_NAME":"KUIPER-00012","OBJECT_ID":"2025-088E","EPOCH":"2026-03-15T04:27:21.475872","MEAN_MOTION":14.79917837,"ECCENTRICITY":7.343e-5,"INCLINATION":51.9018,"RA_OF_ASC_NODE":51.2759,"ARG_OF_PERICENTER":106.1224,"MEAN_ANOMALY":253.982,"EPHEMERIS_TYPE":0,"CLASSIFICATION_TYPE":"U","NORAD_CAT_ID":63728,"ELEMENT_SET_NO":999,"REV_AT_EPOCH":4873,"BSTAR":0.00037966827,"MEAN_MOTION_DOT":2.673e-5,"MEAN_MOTION_DDOT":0},{"OBJECT_NAME":"KUIPER-00013","OBJECT_ID":"2025-088F","EPOCH":"2026-03-15T07:40:00.208704","MEAN_MOTION":14.7989075,"ECCENTRICITY":0.00022267,"INCLINATION":51.9005,"RA_OF_ASC_NODE":83.2022,"ARG_OF_PERICENTER":66.2357,"MEAN_ANOMALY":293.8838,"EPHEMERIS_TYPE":0,"CLASSIFICATION_TYPE":"U","NORAD_CAT_ID":63729,"ELEMENT_SET_NO":999,"REV_AT_EPOCH":4840,"BSTAR":0.00049601411,"MEAN_MOTION_DOT":3.558e-5,"MEAN_MOTION_DDOT":0},{"OBJECT_NAME":"KUIPER-00014","OBJECT_ID":"2025-088G","EPOCH":"2026-03-14T13:47:54.133440","MEAN_MOTION":14.80187692,"ECCENTRICITY":0.00017491,"INCLINATION":51.9009,"RA_OF_ASC_NODE":87.4638,"ARG_OF_PERICENTER":78.8983,"MEAN_ANOMALY":281.2176,"EPHEMERIS_TYPE":0,"CLASSIFICATION_TYPE":"U","NORAD_CAT_ID":63730,"ELEMENT_SET_NO":999,"REV_AT_EPOCH":4809,"BSTAR":0.011258135,"MEAN_MOTION_DOT":0.00087254,"MEAN_MOTION_DDOT":0},{"OBJECT_NAME":"KUIPER-00015","OBJECT_ID":"2025-088H","EPOCH":"2026-03-14T18:36:12.431232","MEAN_MOTION":14.835253,"ECCENTRICITY":0.00106584,"INCLINATION":51.8986,"RA_OF_ASC_NODE":95.7156,"ARG_OF_PERICENTER":85.6025,"MEAN_ANOMALY":274.6156,"EPHEMERIS_TYPE":0,"CLASSIFICATION_TYPE":"U","NORAD_CAT_ID":63731,"ELEMENT_SET_NO":999,"REV_AT_EPOCH":4845,"BSTAR":-0.0024900867,"MEAN_MOTION_DOT":-0.00020881,"MEAN_MOTION_DDOT":0},{"OBJECT_NAME":"KUIPER-00016","OBJECT_ID":"2025-088J","EPOCH":"2026-03-14T05:37:55.061184","MEAN_MOTION":14.79955672,"ECCENTRICITY":0.00064752,"INCLINATION":51.8992,"RA_OF_ASC_NODE":91.5001,"ARG_OF_PERICENTER":88.1474,"MEAN_ANOMALY":272.023,"EPHEMERIS_TYPE":0,"CLASSIFICATION_TYPE":"U","NORAD_CAT_ID":63732,"ELEMENT_SET_NO":999,"REV_AT_EPOCH":4800,"BSTAR":0.00058962947,"MEAN_MOTION_DOT":4.279e-5,"MEAN_MOTION_DDOT":0},{"OBJECT_NAME":"KUIPER-00018","OBJECT_ID":"2025-088K","EPOCH":"2026-03-15T06:14:22.566624","MEAN_MOTION":14.79923221,"ECCENTRICITY":6.903e-5,"INCLINATION":51.9017,"RA_OF_ASC_NODE":75.9374,"ARG_OF_PERICENTER":96.1619,"MEAN_ANOMALY":263.9422,"EPHEMERIS_TYPE":0,"CLASSIFICATION_TYPE":"U","NORAD_CAT_ID":63733,"ELEMENT_SET_NO":999,"REV_AT_EPOCH":4831,"BSTAR":0.00044636831,"MEAN_MOTION_DOT":3.182e-5,"MEAN_MOTION_DDOT":0},{"OBJECT_NAME":"KUIPER-00019","OBJECT_ID":"2025-088L","EPOCH":"2026-03-15T06:15:52.878816","MEAN_MOTION":14.79942051,"ECCENTRICITY":6.733e-5,"INCLINATION":51.9003,"RA_OF_ASC_NODE":74.4582,"ARG_OF_PERICENTER":73.471,"MEAN_ANOMALY":286.6327,"EPHEMERIS_TYPE":0,"CLASSIFICATION_TYPE":"U","NORAD_CAT_ID":63734,"ELEMENT_SET_NO":999,"REV_AT_EPOCH":4833,"BSTAR":0.0002035837,"MEAN_MOTION_DOT":1.331e-5,"MEAN_MOTION_DDOT":0},{"OBJECT_NAME":"KUIPER-00020","OBJECT_ID":"2025-088M","EPOCH":"2026-03-14T17:12:07.130016","MEAN_MOTION":14.79934665,"ECCENTRICITY":0.0007221,"INCLINATION":51.9003,"RA_OF_ASC_NODE":80.8573,"ARG_OF_PERICENTER":91.4268,"MEAN_ANOMALY":268.7521,"EPHEMERIS_TYPE":0,"CLASSIFICATION_TYPE":"U","NORAD_CAT_ID":63735,"ELEMENT_SET_NO":999,"REV_AT_EPOCH":4840,"BSTAR":-0.0033848441,"MEAN_MOTION_DOT":-0.00025941,"MEAN_MOTION_DDOT":0},{"OBJECT_NAME":"KUIPER-00021","OBJECT_ID":"2025-088N","EPOCH":"2026-03-13T10:22:18.330240","MEAN_MOTION":14.80006332,"ECCENTRICITY":0.00034631,"INCLINATION":51.9,"RA_OF_ASC_NODE":87.5329,"ARG_OF_PERICENTER":91.8245,"MEAN_ANOMALY":268.3114,"EPHEMERIS_TYPE":0,"CLASSIFICATION_TYPE":"U","NORAD_CAT_ID":63736,"ELEMENT_SET_NO":999,"REV_AT_EPOCH":4803,"BSTAR":0.00055580504,"MEAN_MOTION_DOT":4.025e-5,"MEAN_MOTION_DDOT":0},{"OBJECT_NAME":"KUIPER-00023","OBJECT_ID":"2025-088P","EPOCH":"2026-03-15T06:06:49.782240","MEAN_MOTION":14.79917412,"ECCENTRICITY":0.00081261,"INCLINATION":51.8995,"RA_OF_ASC_NODE":80.9372,"ARG_OF_PERICENTER":114.1323,"MEAN_ANOMALY":246.049,"EPHEMERIS_TYPE":0,"CLASSIFICATION_TYPE":"U","NORAD_CAT_ID":63737,"ELEMENT_SET_NO":999,"REV_AT_EPOCH":4858,"BSTAR":0.00047839534,"MEAN_MOTION_DOT":3.426e-5,"MEAN_MOTION_DDOT":0},{"OBJECT_NAME":"KUIPER-00024","OBJECT_ID":"2025-088Q","EPOCH":"2026-03-15T04:48:50.865408","MEAN_MOTION":14.79916937,"ECCENTRICITY":7.049e-5,"INCLINATION":51.9041,"RA_OF_ASC_NODE":68.745,"ARG_OF_PERICENTER":71.9845,"MEAN_ANOMALY":288.1194,"EPHEMERIS_TYPE":0,"CLASSIFICATION_TYPE":"U","NORAD_CAT_ID":63738,"ELEMENT_SET_NO":999,"REV_AT_EPOCH":4887,"BSTAR":-0.00015230774,"MEAN_MOTION_DOT":-1.382e-5,"MEAN_MOTION_DDOT":0},{"OBJECT_NAME":"KUIPER-00025","OBJECT_ID":"2025-088R","EPOCH":"2026-03-15T06:52:02.409600","MEAN_MOTION":14.83577115,"ECCENTRICITY":7.615e-5,"INCLINATION":51.9025,"RA_OF_ASC_NODE":76.4656,"ARG_OF_PERICENTER":30.7205,"MEAN_ANOMALY":329.3803,"EPHEMERIS_TYPE":0,"CLASSIFICATION_TYPE":"U","NORAD_CAT_ID":63739,"ELEMENT_SET_NO":999,"REV_AT_EPOCH":4863,"BSTAR":0.00047839742,"MEAN_MOTION_DOT":3.754e-5,"MEAN_MOTION_DDOT":0},{"OBJECT_NAME":"KUIPER-00027","OBJECT_ID":"2025-088S","EPOCH":"2026-03-15T04:44:48.486624","MEAN_MOTION":14.7996493,"ECCENTRICITY":7.833e-5,"INCLINATION":51.9028,"RA_OF_ASC_NODE":71.2271,"ARG_OF_PERICENTER":82.1457,"MEAN_ANOMALY":277.9594,"EPHEMERIS_TYPE":0,"CLASSIFICATION_TYPE":"U","NORAD_CAT_ID":63740,"ELEMENT_SET_NO":999,"REV_AT_EPOCH":4843,"BSTAR":-5.6376714e-5,"MEAN_MOTION_DOT":-6.51e-6,"MEAN_MOTION_DDOT":0}]
